satname,norad_id,inclination_deg,eccentricity,mean_motion_rev_per_day,perigee_km,apogee_km,l1,l2
STARLINK-1263,45405,53.1586,0.0001311,15.30192122,474.34011426813595,476.1370693483086,1 45405U 20019AX  26077.43833259  .00004021  00000+0  14786-3 0  9994,2 45405  53.1586  88.6338 0001311  78.1208 281.9939 15.30192122331314
STARLINK-1265,45406,53.1598,0.0001266,15.3019619,474.3588096039821,476.09408122836066,1 45406U 20019AY  26077.45309977  .00003121  00000+0  11746-3 0  9995,2 45406  53.1598  88.6403 0001266  88.0000 272.1146 15.30196190331311
STARLINK-1278,45408,53.0432,0.0003399,15.57634263,392.20392453934164,396.80796721394745,1 45408U 20019BA  26076.74173178  .00086667  00000+0  11455-2 0  9992,2 45408  53.0432  91.3589 0003399  66.6563 293.4806 15.57634263331215
STARLINK-1296,45412,53.158,0.0001762,15.30678839,472.5784064225272,474.99302398736563,1 45412U 20019BE  26077.44590506  .00038395  00000+0  12827-2 0  9992,2 45412  53.1580  88.5662 0001762  87.3090 272.8113 15.30678839331313
STARLINK-1298,45413,53.0335,0.0002311,16.04469183,260.52479600749393,263.59389475832995,1 45413U 20019BF  26077.85391063  .00425778  94139-4  62716-3 0  9994,2 45413  53.0335   6.4612 0002311  78.4908 281.6383 16.04469183332584
STARLINK-1309,45414,53.0657,0.000673,15.56515963,393.18931739351956,402.30966060771425,1 45414U 20019BG  26077.42924967  .00084379  00000+0  11624-2 0  9991,2 45414  53.0657  81.3284 0006730  61.8625 298.3065 15.56515963331394
STARLINK-1316,45415,53.1616,0.0001492,15.30619866,472.93937867936074,474.984044934964,1 45415U 20019BH  26077.75237711  .00010064  00000+0  34697-3 0  9998,2 45415  53.1616  87.1904 0001492 106.5238 253.5927 15.30619866331389
STARLINK-1286,45417,53.0477,0.0003647,15.51520166,409.81051123529596,414.7634464854773,1 45417U 20019BK  26077.75500943  .00029241  00000+0  49180-3 0  9990,2 45417  53.0477  87.1395 0003647  78.5831 281.5587 15.51520166331638
STARLINK-1308,45419,53.0534,0.0003781,15.52249202,407.59401066752525,412.7273213625658,1 45419U 20019BM  26077.50775595  .00089718  00000+0  14435-2 0  9991,2 45419  53.0534 109.7030 0003781  44.4856 315.6457 15.52249202331049
STARLINK-1329,45531,53.049,6.48e-05,15.58243975,392.30040472559176,393.1779102756045,1 45531U 20025A   26077.91667824  .00096210  00000+0  12409-2 0  9997,2 45531  53.0490  36.5882 0000648 129.0524  58.4254 15.58243975  5916
STARLINK-1338,45532,53.0484,0.0004799,15.56419376,394.7779319263782,401.28169683482065,1 45532U 20025B   26077.18252432  .00090284  00000+0  12474-2 0  9999,2 45532  53.0484  43.6264 0004799  43.7195 316.4195 15.56419376326724
STARLINK-1350,45535,53.0739,0.0002317,15.36369831,455.2710761348044,458.4384113088445,1 45535U 20025E   26077.89866855  .00010248  00000+0  29508-3 0  9999,2 45535  53.0739 349.8879 0002317  90.3098 269.8170 15.36369831327573
STARLINK-1362,45538,53.1623,0.0001424,15.29713564,475.6917402868394,477.64398871224876,1 45538U 20025H   26077.66929931 -.00166215  00000+0 -58124-2 0  9995,2 45538  53.1623  59.2862 0001424 105.0561 255.0597 15.29713564326555
STARLINK-1368,45540,53.1616,0.0001122,15.30191444,474.4716672435916,476.0095651806696,1 45540U 20025K   26077.67894491  .00003261  00000+0  12221-3 0  9999,2 45540  53.1616  59.5728 0001122  99.7035 260.4092 15.30191444326542
STARLINK-1371,45542,53.0496,0.0001703,15.48506066,419.9377242876835,422.2535429226882,1 45542U 20025M   26077.14204617  .00072506  00000+0  13366-2 0  9996,2 45542  53.0496  48.9985 0001703  57.1366 302.9805 15.48506066326640
STARLINK-1372,45543,53.1607,0.0001137,15.30178255,474.50076332610115,476.0592303511821,1 45543U 20025N   26077.65573058  .00000724  00000+0  36573-4 0  9991,2 45543  53.1607  59.3766 0001137 100.1000 260.0129 15.30178255325642
STARLINK-1373,45544,53.0492,0.000506,15.52298935,406.5808696978629,413.4504802049123,1 45544U 20025P   26077.19959652  .00065186  00000+0  10520-2 0  9994,2 45544  53.0492  48.0382 0005060  47.5142 312.6294 15.52298935326665
STARLINK-1327,45555,53.0474,0.0006678,15.55848633,395.1606485460379,404.21311011927537,1 45555U 20025AA  26077.13709300  .00097136  00000+0  13684-2 0  9997,2 45555  53.0474  25.7928 0006678  96.9820 263.1950 15.55848633326963
STARLINK-1356,45564,53.0524,0.000591,15.46292626,423.56041231858944,431.6047728770409,1 45564U 20025AK  26077.58993399  .00038201  00000+0  76736-3 0  9995,2 45564  53.0524  31.4304 0005910  70.2460 289.9183 15.46292626326929
STARLINK-1357,45565,53.0522,0.0004347,15.57608539,391.63641244276005,397.52461304834105,1 45565U 20025AL  26077.76766664  .00092364  00000+0  12205-2 0  9999,2 45565  53.0522 354.0218 0004347 140.4292 219.7037 15.57608539327478
STARLINK-1361,45567,53.0505,0.000749,15.4932379,413.6121932175538,423.7938595770984,1 45567U 20025AN  26077.85427594  .00076023  00000+0  13596-2 0  9995,2 45567  53.0505  30.0296 0007490  69.9763 290.2051 15.49323790326976
STARLINK-1363,45568,53.043,0.0007431,15.78948966,328.4300107734516,338.40472287342436,1 45568U 20025AP  26077.91667824  .00070094  00000+0  38768-3 0  9996,2 45568  53.0430 351.5553 0007431  93.5819 106.6507 15.78948966  5870
STARLINK-1366,45569,53.0436,0.000771,15.77720598,331.72323680712634,342.07782467953257,1 45569U 20025AQ  26076.95220442  .00086889  00000+0  50579-3 0  9994,2 45569  53.0436 357.2231 0007710  89.8963 270.2940 15.77720598327347
STARLINK-1376,45570,53.1625,0.0001535,15.30696055,472.68257636135877,474.7861008623122,1 45570U 20025AR  26077.86260468  .00012536  00000+0  42810-3 0  9996,2 45570  53.1625  35.1861 0001535 119.5083 240.6071 15.30696055326900
STARLINK-1320,45572,53.0477,0.0006371,15.70082127,354.37006102753,362.9540904098112,1 45572U 20025AT  26077.91279423  .00058304  00000+0  47486-3 0  9992,2 45572  53.0477 300.1664 0006371  83.9964 276.1779 15.70082127328259
STARLINK-1321,45573,53.0491,0.0004528,15.50012674,413.612332202576,419.7657266548258,1 45573U 20025AU  26077.53190902  .00079247  00000+0  13833-2 0  9992,2 45573  53.0491  16.1080 0004528  94.2858 265.8667 15.50012674326832
STARLINK-1331,45578,53.0531,0.0005645,15.49975979,412.9605321865183,420.63201185062735,1 45578U 20025AZ  26077.86224785  .00073793  00000+0  12909-2 0  9993,2 45578  53.0531  21.2073 0005645 115.8615 244.2976 15.49975979327102
STARLINK-1333,45580,53.1621,0.000121,15.30192448,474.4083600939757,476.0668767516345,1 45580U 20025BB  26077.57618060  .00002168  00000+0  85328-4 0  9992,2 45580  53.1621  36.5302 0001210  89.7785 270.3354 15.30192448326865
STARLINK-1335,45581,53.1567,0.0001381,15.29320049,476.8968932753851,478.790515145889,1 45581U 20025BC  26077.39467437 -.00001071  00000+0 -24798-4 0  9991,2 45581  53.1567  34.6679 0001381 108.1151 252.0000 15.29320049326866
STARLINK-1337,45582,53.0535,0.00053,15.59578375,385.2899100451741,392.4629442779651,1 45582U 20025BD  26077.85338793  .00092320  00000+0  11324-2 0  9999,2 45582  53.0535  17.2056 0005300 115.9613 244.1946 15.59578375327144
STARLINK-1347,45586,53.0455,0.0005206,15.56012452,395.6828648373139,402.7394397334738,1 45586U 20025BH  26077.03697546  .00099486  00000+0  13929-2 0  9990,2 45586  53.0455 349.1251 0005206  98.4292 261.7308 15.56012452327464
STARLINK-1364,45589,53.0516,0.0007835,15.51206481,407.8813733649622,418.52340218560676,1 45589U 20025BL  26077.13293632  .00085582  00000+0  14291-2 0  9997,2 45589  53.0516  22.6706 0007835  92.3923 267.7982 15.51206481327003
STARLINK-1365,45590,53.0531,0.0004543,15.46852265,422.8498970411274,429.0320823025422,1 45590U 20025BM  26077.91231244  .00066262  00000+0  12950-2 0  9990,2 45590  53.0531  49.5461 0004543  79.2786 280.8732 15.46852265326719
STARLINK-1443,45660,53.1383,0.0003471,15.25944608,485.5672020379898,490.3336399256359,1 45660U 20035D   26077.10091783  .00043141  00000+0  16621-2 0  9992,2 45660  53.1383  26.0965 0003471  89.7237 270.4159 15.25944608320046
STARLINK-1446,45663,53.0243,6.2e-05,15.43268568,436.0477926135691,436.8928039185548,1 45663U 20035G   26077.87855374  .00014265  00000+0  32441-3 0  9997,2 45663  53.0243 315.7157 0000620 333.4942  26.6030 15.43268568321098
STARLINK-1448,45665,53.0509,0.0007972,15.54323151,398.7140438604383,409.5276757921456,1 45665U 20035J   26077.85148453  .00084641  00000+0  12634-2 0  9996,2 45665  53.0509   8.5494 0007972 114.7694 245.4146 15.54323151320345
STARLINK-1451,45668,53.055,0.0001983,15.10596834,533.0079034715218,535.749407180424,1 45668U 20035M   26077.87883766  .00025535  00000+0  15406-2 0  9991,2 45668  53.0550  24.5566 0001983  70.2689 289.8516 15.10596834320130
STARLINK-1452,45669,53.0323,0.0006676,15.46626066,422.0615402389003,431.1472309369383,1 45669U 20035N   26077.73178557  .00080063  00000+0  15718-2 0  9995,2 45669  53.0323 338.5983 0006676  92.9348 267.2423 15.46626066320763
STARLINK-1453,45670,53.0475,0.0005446,15.54567523,399.71684753471254,407.1033086121506,1 45670U 20035P   26077.71253602  .00090955  00000+0  13449-2 0  9990,2 45670  53.0475 329.7966 0005446  89.5789 270.5844 15.54567523320777
STARLINK-1454,45671,53.0507,0.000827,15.52980267,402.4179458946792,413.64226628815413,1 45671U 20035Q   26077.50877855  .00091791  00000+0  14365-2 0  9997,2 45671  53.0507  10.4139 0008270  97.9392 262.2556 15.52980267320287
STARLINK-1456,45673,53.0511,0.0002498,15.51371453,411.02456469860135,414.4172773159362,1 45673U 20035S   26077.51313465  .00083465  00000+0  13875-2 0  9996,2 45673  53.0511   3.9466 0002498 140.9811 219.1378 15.51371453320390
STARLINK-1457,45674,53.0473,0.0007692,15.81103486,322.161061869886,332.47673522421064,1 45674U 20035T   26077.71346544  .00118830  00000+0  58993-3 0  9999,2 45674  53.0473 337.1574 0007692 106.3454 253.8414 15.81103486320758
STARLINK-1458,45675,53.0534,0.0006981,15.44046038,429.4268634683722,438.9382240153436,1 45675U 20035U   26077.54788020  .00034611  00000+0  75153-3 0  9991,2 45675  53.0534  13.3980 0006981 108.5963 251.5801 15.44046038320225
